OBJECT_NAME,OBJECT_ID,EPOCH,MEAN_MOTION,ECCENTRICITY,INCLINATION,RA_OF_ASC_NODE,ARG_OF_PERICENTER,MEAN_ANOMALY,EPHEMERIS_TYPE,CLASSIFICATION_TYPE,NORAD_CAT_ID,ELEMENT_SET_NO,REV_AT_EPOCH,BSTAR,MEAN_MOTION_DOT,MEAN_MOTION_DDOT
STARLINK-34244,2025-190A,2026-06-15T00:47:36.422880,15.34406542,.00010477,53.1584,75.0107,98.4140,261.6981,0,U,65351,999,4467,.5695901E-3,.18921E-3,0
STARLINK-34716,2025-190B,2026-06-15T10:57:41.891040,15.30194595,.0000682,53.1603,74.0756,99.9051,260.2026,0,U,65352,999,4472,.23684E-3,.6661E-4,0
STARLINK-34828,2025-190C,2026-06-15T00:55:23.392416,15.30202626,.00012116,53.1589,75.7270,100.4909,259.6228,0,U,65353,999,4466,.82571144E-3,.24178E-3,0
STARLINK-34785,2025-190D,2026-06-15T11:01:53.554368,15.34399445,.0001737,53.1621,73.3869,81.0547,279.0653,0,U,65354,999,4426,.5469E-3,.18146E-3,0
STARLINK-34823,2025-190E,2026-06-15T10:44:03.036768,15.30167792,.0001429,53.1597,74.0129,101.0863,259.0298,0,U,65355,999,4472,.5566E-3,.16145E-3,0
STARLINK-34680,2025-190F,2026-06-15T00:40:21.577728,15.30207009,.00011471,53.1600,76.3687,68.8372,291.2751,0,U,65356,999,4418,.92530913E-3,.27152E-3,0
STARLINK-34860,2025-190G,2026-06-15T11:26:07.713888,15.34412602,.0001257,53.1612,73.4909,88.7618,271.3529,0,U,65357,999,4426,.72002E-3,.24038E-3,0
STARLINK-34782,2025-190H,2026-06-15T00:47:47.012064,15.30205204,.00010777,53.1593,75.6935,98.7633,261.3490,0,U,65358,999,4466,.60408205E-3,.17577E-3,0
STARLINK-34760,2025-190J,2026-06-15T01:04:30.454752,15.30200748,.00013606,53.1588,75.7669,116.0057,244.1084,0,U,65359,999,4419,.52913117E-3,.15345E-3,0
STARLINK-34826,2025-190K,2026-06-15T01:05:46.924800,15.34396679,.0000944,53.1595,75.0686,96.0066,264.1044,0,U,65360,999,4420,.64054581E-3,.21325E-3,0
STARLINK-34800,2025-190L,2026-06-15T00:46:16.080384,15.30208316,.00012829,53.1604,75.6896,106.9984,253.1157,0,U,65361,999,4419,.55300637E-3,.16059E-3,0
STARLINK-34817,2025-190M,2026-06-15T00:50:37.879296,15.34400517,.00009926,53.1595,75.0002,102.8087,257.3027,0,U,65362,999,4467,.68417716E-3,.2281E-3,0
STARLINK-34797,2025-190N,2026-06-15T11:17:02.021856,15.34397847,.0001522,53.1597,73.4466,103.1239,256.9933,0,U,65363,999,4473,.53599E-3,.17775E-3,0
STARLINK-34729,2025-190P,2026-06-15T10:48:34.786368,15.30207528,.0001161,53.1596,74.0303,81.6450,278.4683,0,U,65364,999,4514,.35928E-3,.10299E-3,0
STARLINK-34710,2025-190Q,2026-06-15T00:41:52.777248,15.30209181,.00010523,53.1602,76.3831,71.7188,288.3927,0,U,65365,999,4418,.70101294E-3,.20466E-3,0
STARLINK-34943,2025-190R,2026-06-15T11:20:03.439392,15.34421539,.0001298,53.1621,73.4613,104.8474,255.2673,0,U,65366,999,4426,.61721E-3,.20549E-3,0
STARLINK-34946,2025-190S,2026-06-15T11:07:56.708256,15.34406197,.0000695,53.1615,73.4066,74.2016,285.9063,0,U,65367,999,4473,.6406E-3,.21333E-3,0
STARLINK-34259,2025-190T,2026-06-15T10:58:51.019680,15.34418908,.0001161,53.1607,73.3703,97.3872,262.7262,0,U,65368,999,4473,.5918E-3,.19683E-3,0
STARLINK-34913,2025-190U,2026-06-15T00:38:37.239360,15.34432045,.00009097,53.1620,75.6598,79.0250,281.0855,0,U,65369,999,4466,.75131317E-3,.25119E-3,0
STARLINK-34870,2025-190V,2026-06-15T10:50:06.136224,15.30211927,.0001294,53.1599,74.0384,100.4872,259.6275,0,U,65370,999,4425,.39883E-3,.11476E-3,0
STARLINK-34869,2025-190W,2026-06-15T10:53:08.240640,15.30200691,.0000829,53.1606,74.0489,131.5136,228.5936,0,U,65371,999,4472,.45697E-4,.995E-5,0
STARLINK-34903,2025-190X,2026-06-15T01:10:34.972032,15.30207158,.00013571,53.1592,75.7855,111.5622,248.5524,0,U,65372,999,4466,.50565488E-3,.1465E-3,0
STARLINK-34891,2025-190Y,2026-06-15T10:31:34.917312,15.34402327,.0001143,53.1581,73.2439,108.0263,252.0864,0,U,65373,999,4421,.55473E-3,.18413E-3,0
STARLINK-34900,2025-190Z,2026-06-15T01:15:08.677728,15.30205881,.00014309,53.1590,75.8058,99.7040,260.4122,0,U,65374,999,4414,.89789069E-3,.26333E-3,0
STARLINK-34305,2025-190AA,2026-06-15T01:12:06.153408,15.30223208,.00016551,53.1595,75.7963,117.8005,242.3164,0,U,65375,999,4466,.99019889E-3,.29104E-3,0
STARLINK-34249,2025-190AB,2026-06-14T23:22:53.745888,15.34405657,.00016315,53.1582,75.3223,118.0509,242.0658,0,U,65376,999,4508,.49120277E-3,.16259E-3,0
STARLINK-34879,2025-190AC,2026-06-15T00:59:56.539968,15.30212503,.00009024,53.1590,75.7373,91.5512,268.5592,0,U,65377,999,4466,.55326894E-3,.16069E-3,0
STARLINK-34912,2025-190AD,2026-06-15T00:50:50.397792,15.30189245,.00010311,53.1589,75.6937,78.9854,281.1263,0,U,65378,999,4466,.63714114E-3,.18552E-3,0
STARLINK-34985,2025-191A,2026-06-15T11:59:34.908576,15.05763072,.0002483,97.3617,36.9458,65.6049,294.5437,0,U,65379,999,4498,.38081E-2,.55487E-3,0
STARLINK-35051,2025-191B,2026-06-15T12:43:29.197920,15.05663858,.0002277,97.3581,37.0606,73.0006,287.1471,0,U,65380,999,4500,.26564E-3,.3779E-4,0
