STARLINK-34244          
1 65351U 25190A   26166.03306045  .00018921  00000+0  56959-3 0  9996
2 65351  53.1584  75.0107 0001047  98.4140 261.6981 15.34406542 44674
STARLINK-34716          
1 65352U 25190B   26166.45673485  .00006661  00000+0  23684-3 0  9995
2 65352  53.1603  74.0756 0000682  99.9051 260.2026 15.30194595 44726
STARLINK-34828          
1 65353U 25190C   26166.03846519  .00024178  00000+0  82571-3 0  9993
2 65353  53.1589  75.7270 0001211 100.4909 259.6228 15.30202626 44662
STARLINK-34785          
1 65354U 25190D   26166.45964762  .00018146  00000+0  54690-3 0  9990
2 65354  53.1621  73.3869 0001737  81.0547 279.0653 15.34399445 44267
STARLINK-34823          
1 65355U 25190E   26166.44725737  .00016145  00000+0  55660-3 0  9992
2 65355  53.1597  74.0129 0001429 101.0863 259.0298 15.30167792 44727
STARLINK-34680          
1 65356U 25190F   26166.02802752  .00027152  00000+0  92531-3 0  9998
2 65356  53.1600  76.3687 0001147  68.8372 291.2751 15.30207009 44187
STARLINK-34860          
1 65357U 25190G   26166.47647817  .00024038  00000+0  72002-3 0  9998
2 65357  53.1612  73.4909 0001257  88.7618 271.3529 15.34412602 44264
STARLINK-34782          
1 65358U 25190H   26166.03318301  .00017577  00000+0  60408-3 0  9991
2 65358  53.1593  75.6935 0001077  98.7633 261.3490 15.30205204 44668
STARLINK-34760          
1 65359U 25190J   26166.04479693  .00015345  00000+0  52913-3 0  9998
2 65359  53.1588  75.7669 0001360 116.0057 244.1084 15.30200748 44191
STARLINK-34826          
1 65360U 25190K   26166.04568200  .00021325  00000+0  64055-3 0  9998
2 65360  53.1595  75.0686 0000944  96.0066 264.1044 15.34396679 44200
STARLINK-34800          
1 65361U 25190L   26166.03213056  .00016059  00000+0  55301-3 0  9996
2 65361  53.1604  75.6896 0001282 106.9984 253.1157 15.30208316 44194
STARLINK-34817          
1 65362U 25190M   26166.03516064  .00022810  00000+0  68418-3 0  9997
2 65362  53.1595  75.0002 0000992 102.8087 257.3027 15.34400517 44679
STARLINK-34797          
1 65363U 25190N   26166.47016229  .00017775  00000+0  53599-3 0  9992
2 65363  53.1597  73.4466 0001522 103.1239 256.9933 15.34397847 44730
STARLINK-34729          
1 65364U 25190P   26166.45040262  .00010299  00000+0  35928-3 0  9995
2 65364  53.1596  74.0303 0001161  81.6450 278.4683 15.30207528 45140
STARLINK-34710          
1 65365U 25190Q   26166.02908307  .00020466  00000+0  70101-3 0  9991
2 65365  53.1602  76.3831 0001052  71.7188 288.3927 15.30209181 44188
STARLINK-34943          
1 65366U 25190R   26166.47226203  .00020549  00000+0  61721-3 0  9999
2 65366  53.1621  73.4613 0001298 104.8474 255.2673 15.34421539 44261
STARLINK-34946          
1 65367U 25190S   26166.46385079  .00021333  00000+0  64060-3 0  9997
2 65367  53.1615  73.4066 0000695  74.2016 285.9063 15.34406197 44737
STARLINK-34259          
1 65368U 25190T   26166.45753495  .00019683  00000+0  59180-3 0  9990
2 65368  53.1607  73.3703 0001161  97.3872 262.7262 15.34418908 44738
STARLINK-34913          
1 65369U 25190U   26166.02681990  .00025119  00000+0  75131-3 0  9999
2 65369  53.1620  75.6598 0000909  79.0250 281.0855 15.34432045 44669
STARLINK-34870          
1 65370U 25190V   26166.45145991  .00011476  00000+0  39883-3 0  9999
2 65370  53.1599  74.0384 0001294 100.4872 259.6275 15.30211927 44251
STARLINK-34869          
1 65371U 25190W   26166.45356760  .00000995  00000+0  45697-4 0  9993
2 65371  53.1606  74.0489 0000829 131.5136 228.5936 15.30200691 44725
STARLINK-34903          
1 65372U 25190X   26166.04901588  .00014650  00000+0  50565-3 0  9995
2 65372  53.1592  75.7855 0001357 111.5622 248.5524 15.30207158 44663
STARLINK-34891          
1 65373U 25190Y   26166.43859858  .00018413  00000+0  55473-3 0  9995
2 65373  53.1581  73.2439 0001143 108.0263 252.0864 15.34402327 44215
STARLINK-34900          
1 65374U 25190Z   26166.05218377  .00026333  00000+0  89789-3 0  9996
2 65374  53.1590  75.8058 0001430  99.7040 260.4122 15.30205881 44143
STARLINK-34305          
1 65375U 25190AA  26166.05007122  .00029104  00000+0  99020-3 0  9999
2 65375  53.1595  75.7963 0001655 117.8005 242.3164 15.30223208 44660
STARLINK-34249          
1 65376U 25190AB  26165.97423317  .00016259  00000+0  49120-3 0  9991
2 65376  53.1582  75.3223 0001631 118.0509 242.0658 15.34405657 45084
STARLINK-34879          
1 65377U 25190AC  26166.04162662  .00016069  00000+0  55327-3 0  9999
2 65377  53.1590  75.7373 0000902  91.5512 268.5592 15.30212503 44668
STARLINK-34912          
1 65378U 25190AD  26166.03530553  .00018552  00000+0  63714-3 0  9995
2 65378  53.1589  75.6937 0001031  78.9854 281.1263 15.30189245 44666
STARLINK-34985          
1 65379U 25191A   26166.49970959  .00055487  00000+0  38081-2 0  9991
2 65379  97.3617  36.9458 0002483  65.6049 294.5437 15.05763072 44982
STARLINK-35051          
1 65380U 25191B   26166.53019905  .00003779  00000+0  26564-3 0  9994
2 65380  97.3581  37.0606 0002277  73.0006 287.1471 15.05663858 45009
